COSMOS 2251 DEB         
1 33792U 93036AH  17345.94927149 -.00000026  00000-0 -56347-5 0  9990
2 33792  73.9009 311.7872 0441756 177.3926 241.8627 13.42043578432001
